METHANESAT              
1 59101U 24043D   25261.91642577  .00003099  00000+0  28210-3 0  9992
2 59101  97.8125  27.6108 0010525 189.0739 171.0293 14.95881730 84061
GOSAT-GW (IBUKI GW)     
1 64694U 25141A   25262.23816801  .00000804  00000+0  15007-3 0  9995
2 64694  98.0283 199.3424 0001518  86.0261 274.1117 14.67558971 12101
GHGSAT-C1               
1 46278U 20061G   25262.28594889  .00016992  00000+0  26680-3 0  9997
2 46278  97.2428 336.7834 0001050   5.7769 354.3497 15.53726671281183
GHGSAT-C12              
1 64529U 25135B   25262.25953929  .00004265  00000+0  21549-3 0  9993
2 64529  97.4548  15.3396 0006051  49.2323 310.9435 15.17591592 13696
GHGSAT-C13              
1 64548U 25135W   25261.87092672  .00003458  00000+0  17103-3 0  9994
2 64548  97.4573  15.1185 0001462  42.6761 317.4587 15.18478193 13640
GHGSAT-C2               
1 47509U 21006DA  25262.11172064  .00006013  00000+0  18821-3 0  9995
2 47509  97.2592 309.0814 0007371  71.3288 288.8754 15.33458450258244
GHGSAT-C3               
1 52737U 22057F   25262.27442639  .00006366  00000+0  22499-3 0  9993
2 52737  97.6247  34.3485 0006550  11.9571 348.1823 15.29543840184056
GHGSAT-C4               
1 52746U 22057Q   25262.29299516  .00006337  00000+0  22405-3 0  9994
2 52746  97.6175  33.4691 0006430 356.7369   3.3827 15.29532503184066
GHGSAT-C5               
1 52744U 22057N   25262.30968253  .00006449  00000+0  22797-3 0  9993
2 52744  97.6335  35.6437 0007434   6.6621 353.4716 15.29524239184064
GHGSAT-C6               
1 56204U 23054AC  25262.24164737  .00010949  00000+0  24431-3 0  9991
2 56204  97.3196 163.7935 0006844 321.2060  38.8696 15.43709549136528
GHGSAT-C7               
1 56209U 23054AH  25262.28636553  .00009118  00000+0  21092-3 0  9996
2 56209  97.3156 163.2808 0006948 312.0798  47.9858 15.42683405136526
GHGSAT-C8               
1 56186U 23054J   25262.28065410  .00011350  00000+0  25315-3 0  9991
2 56186  97.3164 163.2953 0005144 353.8223   6.2961 15.43722944136518
SENTINEL-5P             
1 42969U 17064A   25262.25451230  .00000060  00000+0  49135-4 0  9998
2 42969  98.7634 201.6486 0000938  78.8256 281.3026 14.19547089411121
ENMAP                   
1 52159U 22033C   25262.28373152  .00000477  00000+0  78350-4 0  9994
2 52159  97.9798 343.4186 0001284  96.7932 263.3424 14.74986514186720
PRISMA                  
1 44072U 19015A   25262.29443707  .00000881  00000+0  11310-3 0  9991
2 44072  97.8680 335.9561 0001130  94.4928 265.6415 14.83641691351887
SENTINEL-2A             
1 40697U 15028A   25262.30558388  .00000117  00000+0  61141-4 0  9994
2 40697  98.5712 336.0325 0001138  96.1439 263.9874 14.30813482534990
SENTINEL-2B             
1 42063U 17013A   25262.29839337  .00000264  00000+0  11742-3 0  9997
2 42063  98.5714 335.9609 0001154  89.2842 270.8473 14.30810577445909
SENTINEL-2C             
1 60989U 24157A   25261.77409234  .00000110  00000+0  58503-4 0  9999
2 60989  98.5627 335.5107 0001131  91.0275 269.1037 14.30821245 54170
LANDSAT 8               
1 39084U 13008A   25262.19282221  .00000357  00000+0  89331-4 0  9992
2 39084  98.2174 331.4678 0001216  93.8223 266.3115 14.57103741658439
LANDSAT 9               
1 49260U 21088A   25262.15848433  .00000371  00000+0  92327-4 0  9990
2 49260  98.2194 331.4492 0001299 100.0162 260.1183 14.57116335211532
